[{"OBJECT_NAME":"ION SCV-008","OBJECT_ID":"2023-001AU","EPOCH":"2026-03-09T19:46:58.662912","MEAN_MOTION":15.2722664,"ECCENTRICITY":0.00151921,"INCLINATION":97.5676,"RA_OF_ASC_NODE":163.606,"ARG_OF_PERICENTER":8.542,"MEAN_ANOMALY":351.6074,"EPHEMERIS_TYPE":0,"CLASSIFICATION_TYPE":"U","NORAD_CAT_ID":55051,"ELEMENT_SET_NO":999,"REV_AT_EPOCH":17616,"BSTAR":0.00031422806,"MEAN_MOTION_DOT":8.336e-5,"MEAN_MOTION_DDOT":0},{"OBJECT_NAME":"STARLINK-32194","OBJECT_ID":"2024-133Q","EPOCH":"2026-03-09T21:48:13.315680","MEAN_MOTION":15.3019564,"ECCENTRICITY":0.00012807,"INCLINATION":53.1585,"RA_OF_ASC_NODE":296.0588,"ARG_OF_PERICENTER":91.1943,"MEAN_ANOMALY":268.9205,"EPHEMERIS_TYPE":0,"CLASSIFICATION_TYPE":"U","NORAD_CAT_ID":60315,"ELEMENT_SET_NO":999,"REV_AT_EPOCH":9167,"BSTAR":0.00012788718,"MEAN_MOTION_DOT":3.43e-5,"MEAN_MOTION_DDOT":0}]
